{
  "type": "FeatureCollection",
  "features": [
    {
      "type": "Feature",
      "properties": {
        "norad_id": 37238,
        "name": "INTELSAT 17 (IS-17)",
        "group": "intelsat",
        "lat": 0.024199593865058933,
        "lon": -165.6733309441282,
        "alt_km": 35789.21738311091,
        "timestamp": "2025-12-27T02:10:15.855726+00:00",
        "meta_object_name": "INTELSAT 17 (IS-17)",
        "meta_object_id": "2010-065B",
        "meta_epoch": "2025-12-26T19:49:10.783200",
        "meta_mean_motion": 1.00272043,
        "meta_eccentricity": 0.0002922,
        "meta_inclination": 0.0298,
        "meta_ra_of_asc_node": 74.6637,
        "meta_arg_of_pericenter": 224.9595,
        "meta_mean_anomaly": 159.2109,
        "meta_ephemeris_type": 0,
        "meta_classification_type": "U",
        "meta_norad_cat_id": 37238,
        "meta_element_set_no": 999,
        "meta_rev_at_epoch": 5152,
        "meta_bstar": 0,
        "meta_mean_motion_dot": 0,
        "meta_mean_motion_ddot": 0,
        "tle_line1": "1 37238U 10065B   25360.82581925  .00000000  00000+0  00000+0 0  9999",
        "tle_line2": "2 37238   0.0298  74.6637 0002922 224.9595 159.2109  1.00272043 51527"
      },
      "geometry": {
        "type": "Point",
        "coordinates": [
          -165.6733309441282,
          0.024199593865058933
        ]
      }
    },
    {
      "type": "Feature",
      "properties": {
        "norad_id": 37392,
        "name": "INTELSAT 28 (IS-28)",
        "group": "intelsat",
        "lat": 0.29615576210223055,
        "lon": 96.67438187666406,
        "alt_km": 35802.22964797825,
        "timestamp": "2025-12-27T02:10:15.855738+00:00",
        "meta_object_name": "INTELSAT 28 (IS-28)",
        "meta_object_id": "2011-016A",
        "meta_epoch": "2025-12-26T00:24:38.640960",
        "meta_mean_motion": 1.00271568,
        "meta_eccentricity": 0.00037974,
        "meta_inclination": 1.3569,
        "meta_ra_of_asc_node": 84.9113,
        "meta_arg_of_pericenter": 188.0675,
        "meta_mean_anomaly": 156.2464,
        "meta_ephemeris_type": 0,
        "meta_classification_type": "U",
        "meta_norad_cat_id": 37392,
        "meta_element_set_no": 999,
        "meta_rev_at_epoch": 5154,
        "meta_bstar": 0,
        "meta_mean_motion_dot": -2.03e-06,
        "meta_mean_motion_ddot": 0,
        "tle_line1": "1 37392U 11016A   25360.01711390 -.00000203  00000+0  00000+0 0  9995",
        "tle_line2": "2 37392   1.3569  84.9113 0003797 188.0675 156.2464  1.00271568 51540"
      },
      "geometry": {
        "type": "Point",
        "coordinates": [
          96.67438187666406,
          0.29615576210223055
        ]
      }
    },
    {
      "type": "Feature",
      "properties": {
        "norad_id": 37834,
        "name": "INTELSAT 18 (IS-18)",
        "group": "intelsat",
        "lat": -0.009004626427450618,
        "lon": -51.60958421226099,
        "alt_km": 35778.05484769753,
        "timestamp": "2025-12-27T02:10:15.855749+00:00",
        "meta_object_name": "INTELSAT 18 (IS-18)",
        "meta_object_id": "2011-056A",
        "meta_epoch": "2025-12-26T17:18:43.560864",
        "meta_mean_motion": 1.00271937,
        "meta_eccentricity": 0.0001974,
        "meta_inclination": 0.0148,
        "meta_ra_of_asc_node": 302.6576,
        "meta_arg_of_pericenter": 348.2305,
        "meta_mean_anomaly": 244.2541,
        "meta_ephemeris_type": 0,
        "meta_classification_type": "U",
        "meta_norad_cat_id": 37834,
        "meta_element_set_no": 999,
        "meta_rev_at_epoch": 5208,
        "meta_bstar": 0,
        "meta_mean_motion_dot": 7.5e-07,
        "meta_mean_motion_ddot": 0,
        "tle_line1": "1 37834U 11056A   25360.72133751  .00000075  00000+0  00000+0 0  9993",
        "tle_line2": "2 37834   0.0148 302.6576 0001974 348.2305 244.2541  1.00271937 52082"
      },
      "geometry": {
        "type": "Point",
        "coordinates": [
          -51.60958421226099,
          -0.009004626427450618
        ]
      }
    },
    {
      "type": "Feature",
      "properties": {
        "norad_id": 38098,
        "name": "INTELSAT 22 (IS-22)",
        "group": "intelsat",
        "lat": 0.01663765904018587,
        "lon": -159.55310729723712,
        "alt_km": 35787.74629074979,
        "timestamp": "2025-12-27T02:10:15.855761+00:00",
        "meta_object_name": "INTELSAT 22 (IS-22)",
        "meta_object_id": "2012-011A",
        "meta_epoch": "2025-12-26T19:50:31.200000",
        "meta_mean_motion": 1.00270663,
        "meta_eccentricity": 0.0001956,
        "meta_inclination": 0.0335,
        "meta_ra_of_asc_node": 53.4838,
        "meta_arg_of_pericenter": 246.5621,
        "meta_mean_anomaly": 165.2355,
        "meta_ephemeris_type": 0,
        "meta_classification_type": "U",
        "meta_norad_cat_id": 38098,
        "meta_element_set_no": 999,
        "meta_rev_at_epoch": 546,
        "meta_bstar": 0,
        "meta_mean_motion_dot": 0,
        "meta_mean_motion_ddot": 0,
        "tle_line1": "1 38098U 12011A   25360.82675000  .00000000  00000+0  00000+0 0  9995",
        "tle_line2": "2 38098   0.0335  53.4838 0001956 246.5621 165.2355  1.00270663  5466"
      },
      "geometry": {
        "type": "Point",
        "coordinates": [
          -159.55310729723712,
          0.01663765904018587
        ]
      }
    },
    {
      "type": "Feature",
      "properties": {
        "norad_id": 38356,
        "name": "INTELSAT 19 (IS-19)",
        "group": "intelsat",
        "lat": -0.022880378162077403,
        "lon": -65.59226268176224,
        "alt_km": 35774.143019428986,
        "timestamp": "2025-12-27T02:10:15.855773+00:00",
        "meta_object_name": "INTELSAT 19 (IS-19)",
        "meta_object_id": "2012-030A",
        "meta_epoch": "2025-12-26T13:49:38.874432",
        "meta_mean_motion": 1.00271971,
        "meta_eccentricity": 0.000302,
        "meta_inclination": 0.0093,
        "meta_ra_of_asc_node": 344.9581,
        "meta_arg_of_pericenter": 287.7802,
        "meta_mean_anomaly": 196.0025,
        "meta_ephemeris_type": 0,
        "meta_classification_type": "U",
        "meta_norad_cat_id": 38356,
        "meta_element_set_no": 999,
        "meta_rev_at_epoch": 4872,
        "meta_bstar": 0,
        "meta_mean_motion_dot": -3.4e-07,
        "meta_mean_motion_ddot": 0,
        "tle_line1": "1 38356U 12030A   25360.57614438 -.00000034  00000+0  00000+0 0  9991",
        "tle_line2": "2 38356   0.0093 344.9581 0003020 287.7802 196.0025  1.00271971 48724"
      },
      "geometry": {
        "type": "Point",
        "coordinates": [
          -65.59226268176224,
          -0.022880378162077403
        ]
      }
    },
    {
      "type": "Feature",
      "properties": {
        "norad_id": 38740,
        "name": "INTELSAT 20 (IS-20)",
        "group": "intelsat",
        "lat": 0.01021936517414871,
        "lon": -163.083522328296,
        "alt_km": 35776.2296898955,
        "timestamp": "2025-12-27T02:10:15.855785+00:00",
        "meta_object_name": "INTELSAT 20 (IS-20)",
        "meta_object_id": "2012-043A",
        "meta_epoch": "2025-12-26T02:10:38.891424",
        "meta_mean_motion": 1.00277669,
        "meta_eccentricity": 0.00019573,
        "meta_inclination": 0.0128,
        "meta_ra_of_asc_node": 61.9497,
        "meta_arg_of_pericenter": 128.5096,
        "meta_mean_anomaly": 5.5509,
        "meta_ephemeris_type": 0,
        "meta_classification_type": "U",
        "meta_norad_cat_id": 38740,
        "meta_element_set_no": 999,
        "meta_rev_at_epoch": 4901,
        "meta_bstar": 0,
        "meta_mean_motion_dot": -4e-08,
        "meta_mean_motion_ddot": 0,
        "tle_line1": "1 38740U 12043A   25360.09072791 -.00000004  00000+0  00000+0 0  9996",
        "tle_line2": "2 38740   0.0128  61.9497 0001957 128.5096   5.5509  1.00277669 49010"
      },
      "geometry": {
        "type": "Point",
        "coordinates": [
          -163.083522328296,
          0.01021936517414871
        ]
      }
    },
    {
      "type": "Feature",
      "properties": {
        "norad_id": 38749,
        "name": "INTELSAT 21 (IS-21)",
        "group": "intelsat",
        "lat": 0.032955847276897834,
        "lon": 70.407145771108,
        "alt_km": 35793.22208065585,
        "timestamp": "2025-12-27T02:10:15.855796+00:00",
        "meta_object_name": "INTELSAT 21 (IS-21)",
        "meta_object_id": "2012-045A",
        "meta_epoch": "2025-12-26T05:54:07.054272",
        "meta_mean_motion": 1.00271929,
        "meta_eccentricity": 0.0001751,
        "meta_inclination": 0.0183,
        "meta_ra_of_asc_node": 334.425,
        "meta_arg_of_pericenter": 292.8678,
        "meta_mean_anomaly": 218.2466,
        "meta_ephemeris_type": 0,
        "meta_classification_type": "U",
        "meta_norad_cat_id": 38749,
        "meta_element_set_no": 999,
        "meta_rev_at_epoch": 4879,
        "meta_bstar": 0,
        "meta_mean_motion_dot": -2.63e-06,
        "meta_mean_motion_ddot": 0,
        "tle_line1": "1 38749U 12045A   25360.24591498 -.00000263  00000+0  00000+0 0  9991",
        "tle_line2": "2 38749   0.0183 334.4250 0001751 292.8678 218.2466  1.00271929 48790"
      },
      "geometry": {
        "type": "Point",
        "coordinates": [
          70.407145771108,
          0.032955847276897834
        ]
      }
    }
  ]
}